[{"OBJECT_NAME":"COSMOS 2463","OBJECT_ID":"2010-017A","EPOCH":"2026-03-09T23:23:18.911616","MEAN_MOTION":13.71658076,"ECCENTRICITY":0.00371628,"INCLINATION":82.9631,"RA_OF_ASC_NODE":322.6224,"ARG_OF_PERICENTER":46.7339,"MEAN_ANOMALY":324.8332,"EPHEMERIS_TYPE":0,"CLASSIFICATION_TYPE":"U","NORAD_CAT_ID":36519,"ELEMENT_SET_NO":999,"REV_AT_EPOCH":79433,"BSTAR":5.8605313e-5,"MEAN_MOTION_DOT":6.8e-7,"MEAN_MOTION_DDOT":0},{"OBJECT_NAME":"COSMOS 2230","OBJECT_ID":"1993-001A","EPOCH":"2026-03-09T22:08:17.894112","MEAN_MOTION":13.73878967,"ECCENTRICITY":0.00258717,"INCLINATION":82.9457,"RA_OF_ASC_NODE":1.9181,"ARG_OF_PERICENTER":81.6851,"MEAN_ANOMALY":349.9515,"EPHEMERIS_TYPE":0,"CLASSIFICATION_TYPE":"U","NORAD_CAT_ID":22307,"ELEMENT_SET_NO":999,"REV_AT_EPOCH":65345,"BSTAR":7.9025119e-5,"MEAN_MOTION_DOT":9.0e-7,"MEAN_MOTION_DDOT":0}]
